ELYSIUM STAR 2 & LFF    
1 43760U 18099C   24172.56484976  .00030321  00000+0  11665-2 0  9991
2 43760  97.5171 240.1840 0005835 242.0639 118.0009 15.26324704303759
